PROMETHEUS 2-1          
1 41854U 16067G   25127.09948020  .00044073  00000+0  91657-3 0  9999
2 41854  98.0819 336.5986 0005953  22.0573 338.0929 15.45499659465231
PROMETHEUS 2-3          
1 41855U 16067H   25127.10870563  .00046063  00000+0  95843-3 0  9990
2 41855  98.0766 335.8007 0005310  34.3506 325.8083 15.45478927465238
CORVUS BC2              
1 42846U 17042X   25127.35172235  .00004450  00000+0  33666-3 0  9992
2 42846  97.3738 301.5454 0015149  63.0001 297.2770 15.02721984426044
CORVUS BC1              
1 42847U 17042Y   25127.00862495  .00004351  00000+0  32731-3 0  9991
2 42847  97.3773 301.7277 0014096  44.9420 315.2944 15.02959994426017
MIRATA                  
1 43015U 17073C   25126.91794027  .00061000  00000+0  11237-2 0  9998
2 43015  97.5443  20.3658 0087923 205.8188 153.8660 15.44704529405607
MAKERSAT 0              
1 43016U 17073D   25126.59456412  .00014647  00000+0  60401-3 0  9999
2 43016  97.5247   5.1252 0147564 257.7462 100.7213 15.14676933404585
SIRION PATHFINDER-2     
1 43759U 18099B   25126.64649021  .00005685  00000+0  35787-3 0  9999
2 43759  97.4800 180.3904 0008246 258.5942 101.4361 15.09542986351192
CORVUS BC4              
1 43767U 18099K   25126.64464765  .00004646  00000+0  30514-3 0  9997
2 43767  97.4621 176.3647 0007837 329.3687  30.7082 15.08076072351044
MOVE-II                 
1 43780U 18099Y   25127.12218609  .00165882  00000+0  17454-2 0  9997
2 43780  97.4682 200.5229 0005629 223.4041 136.6775 15.63742806352555
SPACEBEE-7              
1 43816U 18099BL  25127.16494336  .00031894  00000+0  95820-3 0  9993
2 43816  97.4976 196.8168 0006350 217.5713 142.5087 15.34339837351670
SHIELDS 1               
1 43850U 18104B   25126.82673365  .00034678  00000+0  44449-3 0  9995
2 43850  85.0152  60.2769 0002939 279.4448  80.6482 15.59000412356193
SONATE                  
1 44400U 19038Q   25127.21510022  .00164282  00000+0  86761-3 0  9996
2 44400  97.6946 150.0284 0003863  50.1062 310.0544 15.80156491324285
DUCHIFAT-3              
1 44854U 19089C   25127.41151099  .00045548  00000+0  97454-3 0  9996
2 44854  36.9433 205.6475 0000884 352.2267   7.8475 15.43825243297816
M2 PATHFINDER           
1 45727U 20037E   25126.49902651  .00004321  00000+0  33362-3 0  9998
2 45727  97.8178 308.9027 0014876  90.9836 269.3093 15.02011266264397
NETSAT-4                
1 46504U 20068U   25127.44963676  .00015926  00000+0  55856-3 0  9991
2 46504  97.8435 103.4339 0006056 337.2890  22.8080 15.29519493253489
NETSAT-3                
1 46505U 20068V   25126.88667739  .00014813  00000+0  54293-3 0  9998
2 46505  97.8434 101.8605 0006297 351.4745   8.6385 15.28090669253366
NETSAT-1                
1 46506U 20068W   25126.90217700  .00010579  00000+0  44548-3 0  9998
2 46506  97.8460  99.9430 0006562   6.4244 353.7074 15.23541416253236
NETSAT-2                
1 46507U 20068X   25126.90815392  .00015187  00000+0  53942-3 0  9998
2 46507  97.8434 102.3708 0005653  13.3978 346.7409 15.29119284253342
WILDTRACKCUBE-SIMBA     
1 47941U 21022K   25127.53301654  .00032535  00000+0  72421-3 0  9992
2 47941  97.4260  31.3642 0012658  77.2875 282.9787 15.43483066228096
GRBALPHA                
1 47959U 21022AD  25127.52689671  .00273418  00000+0  13598-2 0  9994
2 47959  97.4161  39.4186 0008371  95.0335 265.1889 15.81161073227440
LEDSAT                  
1 49069U 21073D   25127.17646911  .00063037  00000+0  88566-3 0  9997
2 49069  97.3904 207.4284 0011975 195.0395 165.0506 15.56420009206232
ROBUSTA-1F (MTCUBE 2)   
1 53109U 22080E   25126.19518274 -.00000003  00000+0  00000+0 0  9995
2 53109  70.1317  79.7762 0008639  15.3573 344.7347  6.42584257 65913
SITRO-AIS 5 (KATYS)     
1 57176U 23091L   25127.49628771  .00011198  00000+0  53406-3 0  9992
2 57176  97.5613 184.4043 0015871  87.8139 272.4912 15.19147094102552
SITRO-AIS 6 (CHIRKIN)   
1 57192U 23091AC  25127.54760054  .00010605  00000+0  50721-3 0  9996
2 57192  97.5612 184.4713 0015872  87.4312 272.8739 15.19064274102563
SITRO-AIS 8 (ANOKHIN)   
1 57193U 23091AD  25127.48499898  .00012315  00000+0  56615-3 0  9993
2 57193  97.5609 184.8449 0015278  87.7806 272.5178 15.20400857102580
SITRO-AIS 7 (FARTUSHNIY)
1 57194U 23091AE  25127.50130291  .00011555  00000+0  55380-3 0  9999
2 57194  97.5611 184.3689 0015623  88.1737 272.1286 15.18973446102556
SITRO-AIS 10 (BURDAEV)  
1 57199U 23091AK  25127.53745236  .00013882  00000+0  58134-3 0  9993
2 57199  97.5619 187.0479 0010804  75.5366 284.7069 15.23611579102729
SITRO-AIS 9 (SHCHUKIN)  
1 57201U 23091AM  25127.48560708  .00013538  00000+0  56993-3 0  9999
2 57201  97.5615 186.9205 0010814  75.8341 284.4097 15.23438461102715
SITRO-AIS 12 (SMIRENNIY)
1 57204U 23091AQ  25127.47211751  .00013344  00000+0  55849-3 0  9996
2 57204  97.5624 187.1741 0010574  70.2785 289.9591 15.23643338102721
SITRO-AIS 11 (SHEFFER)  
1 57208U 23091AU  25127.49490282  .00013752  00000+0  57232-3 0  9991
2 57208  97.5623 187.2770 0010424  70.6462 289.5901 15.23827062102737
VERONIKA                
1 58261U 23174F   25127.48767430  .00112017  00000+0  12579-2 0  9992
2 58261  97.4140 211.8921 0007193 177.7114 182.4178 15.62232567 83507
ROBUSTA-1E (ENSO)       
1 58470U 23185J   25127.54149913  .00057281  00000+0  93490-3 0  9996
2 58470  97.3760 201.6873 0008639 193.5203 166.5819 15.52360269 79904
SITRO-AIS 29            
1 59052U 24039B   25126.50870859  .04832804  25133-5  12415-2 0  9990
2 59052  97.3967 102.9889 0007476 194.8267 165.2809 16.28741480 66657
SITRO-AIS 30            
1 59053U 24039C   25127.49646342  .01015718  56307-3  14632-2 0  9990
2 59053  97.3992 103.4764 0011115 144.0619 216.1412 16.05389471 66768
SITRO-AIS 31            
1 59054U 24039D   25127.50461249  .02454997  24380-5  13621-2 0  9996
2 59054  97.4037 103.9588 0008540 170.7795 189.3652 16.19382810 66816
SITRO-AIS 33            
1 59055U 24039E   25127.50427245  .04471532  25047-5  12379-2 0  9991
2 59055  97.4010 104.1085 0008078 192.8531 167.2557 16.27890368 66812
SITRO-AIS 35            
1 59056U 24039F   25126.59132063  .05474853  25270-5  11700-2 0  9996
2 59056  97.3903 103.1933 0007697 195.4460 164.6601 16.30731935 66673
SITRO-AIS 32            
1 59057U 24039G   25127.53041913  .01350160  12189-2  14799-2 0  9998
2 59057  97.4125 103.7858 0009698 155.1336 205.0416 16.09952166 66795
SITRO-AIS 34            
1 59058U 24039H   25127.56310509  .05719890  25330-5  11409-2 0  9995
2 59058  97.3984 104.1920 0008424 202.8306 157.2616 16.31437360 66829
SITRO-AIS 36            
1 59059U 24039J   25127.53585358  .01949926  40395-2  14821-2 0  9996
2 59059  97.3983 104.0428 0009222 167.4771 192.6746 16.16127784 66815
SITRO-AIS 49            
1 59060U 24039K   25127.51884607  .01210112  88877-3  15176-2 0  9995
2 59060  97.4029 103.7742 0010100 146.9627 213.2288 16.07742451 66795
SITRO-AIS 25            
1 59066U 24039R   25127.52746104  .00003749  00000+0  32276-3 0  9995
2 59066  95.3758 317.5324 0154664 302.2269  56.4040 14.88850835 64278
SITRO-AIS 26            
1 59067U 24039S   25127.55007449  .00003671  00000+0  31720-3 0  9998
2 59067  95.3760 317.5123 0154846 302.3665  56.2649 14.88704516 64279
SITRO-AIS 27            
1 59068U 24039T   25127.55223646  .00003701  00000+0  31763-3 0  9999
2 59068  95.3761 317.6262 0154115 301.7604  56.8681 14.89026580 64283
SITRO-AIS 28            
1 59071U 24039U   25127.47301319  .00003952  00000+0  33879-3 0  9996
2 59071  95.3762 317.5967 0153966 301.9500  56.6830 14.89065960 64277
GRBBETA                 
1 60237U 24128C   25126.66113423  .00004330  00000+0  33324-3 0  9994
2 60237  61.9914 197.7924 0049046  49.8005 310.7363 15.02333150 45104
OOV-CUBE (TUBSAT-30)    
1 60240U 24128F   25127.20211777  .00002643  00000+0  22247-3 0  9997
2 60240  61.9957 198.2785 0048654  46.7085 313.8046 15.00066822 45158
ROBUSTA-3A (MEDITERRAN*)
1 60243U 24128J   25126.54411591  .00007373  00000+0  53021-3 0  9991
2 60243  61.9885 197.6863 0047472  43.1521 317.3275 15.04169404 45106
LASARSAT                
1 62391U 24247Q   25126.32731196  .00018680  00000+0  74644-3 0  9998
2 62391  44.9888 346.3658 0008306 207.6687 152.3753 15.24882484 20837
CROCUBE                 
1 62394U 24247T   25126.98030167  .00017444  00000+0  69417-3 0  9992
2 62394  44.9865 342.7812 0008895 209.9681 150.0692 15.25058792 20935
